satname,norad_id,inclination_deg,eccentricity,mean_motion_rev_per_day,perigee_km,apogee_km,l1,l2
STARLINK-1255,45399,53.0426,0.0001748,15.50557649,413.9093590730454,416.2842736152388,1 45399U 20019AR  26062.43939989  .00089758  00000+0  15342-2 0  9995,2 45399  53.0426 132.7929 0001748 272.8376  87.2432 15.50557649329467
STARLINK-1260,45404,53.1613,9.14e-05,15.30205994,474.5707777308062,475.8235672175342,1 45404U 20019AW  26062.68876295 -.00000485  00000+0 -42589-5 0  9997,2 45404  53.1613 157.1162 0000914  81.6100 278.5004 15.30205994329054
STARLINK-1263,45405,53.1605,0.000113,15.30201579,474.43592656290093,475.9847830650888,1 45405U 20019AX  26062.67718112  .00000205  00000+0  19053-4 0  9997,2 45405  53.1605 157.1978 0001130  85.9945 274.1184 15.30201579329052
STARLINK-1265,45406,53.1596,0.0001186,15.30220682,474.34051715916394,475.966117622449,1 45406U 20019AY  26062.49600627  .00011163  00000+0  38822-3 0  9998,2 45406  53.1596 158.1144 0001186  88.2195 271.8941 15.30220682329020
STARLINK-1278,45408,53.047,7.83e-05,15.54491433,403.100361439665,404.16238636701746,1 45408U 20019BA  26062.54796710  .00124651  00000+0  18386-2 0  9994,2 45408  53.0470 160.1040 0000783  81.1387 278.9711 15.54491433329008
STARLINK-1296,45412,53.1603,0.0001302,15.30197951,474.3288801348199,476.1134946068123,1 45412U 20019BE  26062.55497763  .00002135  00000+0  84200-4 0  9998,2 45412  53.1603 157.7437 0001302  90.8197 269.2953 15.30197951329034
STARLINK-1298,45413,53.0355,0.0007265,15.92657645,290.00118636774187,299.6970351867021,1 45413U 20019BF  26062.91670139  .00299582  45209-4  85907-3 0  9992,2 45413  53.0355  83.4736 0007265 358.2856  47.0883 15.92657645  5946
STARLINK-1309,45414,53.0682,0.0004555,15.5357647,403.20350653505557,409.38412300731216,1 45414U 20019BG  26062.91670139  .00066709  00000+0  10279-2 0  9990,2 45414  53.0682 151.4748 0004555  12.9274  53.7578 15.53576470  5876
STARLINK-1316,45415,53.1605,0.000137,15.30199905,474.27644379984395,476.15426234458664,1 45415U 20019BH  26062.66559671  .00001157  00000+0  51180-4 0  9994,2 45415  53.1605 157.2803 0001370  83.1987 276.9170 15.30199905329079
STARLINK-1286,45417,53.0498,0.0002521,15.50373359,413.9224284430693,417.3478483552499,1 45417U 20019BK  26062.67658654  .00046697  00000+0  81154-3 0  9999,2 45417  53.0498 159.6047 0002521  58.9698 301.1557 15.50373359329297
STARLINK-1308,45419,53.0552,0.0001649,15.49641398,416.6536476861993,418.89493923078135,1 45419U 20019BM  26062.62145749  .00036742  00000+0  65780-3 0  9999,2 45419  53.0552 181.2213 0001649  12.8414 347.2636 15.49641398328737
STARLINK-1329,45531,53.0495,0.0001788,15.54839597,401.4065420170964,403.8313403416623,1 45531U 20025A   26062.53775495  .00121098  00000+0  17646-2 0  9994,2 45531  53.0495 111.1162 0001788 289.1149  70.9668 15.54839597324491
STARLINK-1338,45532,53.0506,0.0004877,15.53388721,403.5314332035441,410.1495002245774,1 45532U 20025B   26062.46417229  .00094548  00000+0  14585-2 0  9993,2 45532  53.0506 114.7854 0004877 332.4992  27.5758 15.53388721324431
STARLINK-1350,45535,53.0719,0.0001841,15.35894222,457.00711671981753,459.52428019339004,1 45535U 20025E   26062.41423769  .00015571  00000+0  44924-3 0  9997,2 45535  53.0719  62.6125 0001841  59.7818 300.3366 15.35894222325195
STARLINK-1362,45538,53.162,0.000139,15.30212012,474.22659303476576,476.13181493947286,1 45538U 20025H   26062.45106336  .00003607  00000+0  13379-3 0  9999,2 45538  53.1620 129.9756 0001390  76.6803 283.4353 15.30212012324224
STARLINK-1368,45540,53.16,0.0001368,15.30192662,474.29943789180925,476.1745210125873,1 45540U 20025K   26062.59123152 -.00001291  00000+0 -31487-4 0  9992,2 45540  53.1600 129.6547 0001368  85.2828 274.8329 15.30192662324234
STARLINK-1371,45542,53.0521,0.0001773,15.45856213,427.6565398072571,430.07030215653776,1 45542U 20025M   26062.41444420  .00077721  00000+0  15684-2 0  9997,2 45542  53.0521 119.3735 0001773 299.9481  60.1349 15.45856213324368
STARLINK-1372,45543,53.1612,0.0001555,15.30190046,474.1790895618051,476.31049129862913,1 45543U 20025N   26062.50270406 -.00001762  00000+0 -47372-4 0  9994,2 45543  53.1612 129.7624 0001555  73.4370 286.6802 15.30190046323326
STARLINK-1373,45544,53.0509,0.000358,15.49472689,415.8344712710459,420.7006969532713,1 45544U 20025P   26062.44300894  .00050597  00000+0  90645-3 0  9991,2 45544  53.0509 118.9504 0003580 327.7001  32.3787 15.49472689324374
STARLINK-1327,45555,53.0488,0.000614,15.52526592,405.18454667136575,413.5195832431318,1 45555U 20025AA  26062.41152168  .00095470  00000+0  15186-2 0  9994,2 45555  53.0488  96.9074 0006140  28.6525 331.4820 15.52526592324673
STARLINK-1356,45564,53.052,0.0005688,15.43831818,430.9375021616752,438.6879137494452,1 45564U 20025AK  26062.38876747  .00050834  00000+0  11055-2 0  9992,2 45564  53.0520 103.8300 0005688   8.1656 351.9440 15.43831818324578
STARLINK-1357,45565,53.0531,0.0003591,15.53965652,402.7251366821374,407.5969013193844,1 45565U 20025AL  26062.41520709  .00108438  00000+0  16345-2 0  9992,2 45565  53.0531  68.3349 0003591  50.0836 310.0489 15.53965652325087
STARLINK-1361,45567,53.0506,0.0007331,15.46472202,422.06684320420936,432.0446167849268,1 45567U 20025AN  26062.74621747  .00104765  00000+0  20582-2 0  9991,2 45567  53.0506 102.3025 0007331   7.6225 352.4892 15.46472202324631
STARLINK-1363,45568,53.0427,0.0008504,15.75092659,338.650704541752,350.08434023342943,1 45568U 20025AP  26062.41887760  .00109646  00000+0  71327-3 0  9992,2 45568  53.0427  68.9983 0008504  33.9646 326.1916 15.75092659325065
STARLINK-1366,45569,53.043,0.000871,15.74388308,340.51533792248847,352.22943327219855,1 45569U 20025AQ  26062.43115317  .00101833  00000+0  68385-3 0  9997,2 45569  53.0430  69.6805 0008710  33.8349 326.3224 15.74388308325050
STARLINK-1376,45570,53.161,0.0001331,15.29352815,476.8332607532011,478.65829674890483,1 45570U 20025AR  26062.38025860  .00000339  00000+0  24078-4 0  9997,2 45570  53.1610 107.0738 0001331  90.9602 269.1551 15.29352815324536
STARLINK-1320,45572,53.0502,0.0007862,15.67505323,360.7408110908873,371.3453598572869,1 45572U 20025AT  26062.11462818  .00080449  00000+0  72398-3 0  9995,2 45572  53.0502  18.1455 0007862  33.6663 326.4850 15.67505323325773
STARLINK-1321,45573,53.0492,0.0004398,15.47086735,422.2613760776094,428.2456383677627,1 45573U 20025AU  26062.36555874  .00089919  00000+0  17350-2 0  9995,2 45573  53.0492  88.7319 0004398  18.0537 342.0626 15.47086735324483
STARLINK-1331,45578,53.0533,0.0003999,15.47082908,422.5440465098818,427.9854072110238,1 45578U 20025AZ  26062.63116181  .00091400  00000+0  17634-2 0  9997,2 45578  53.0533  94.1313 0003999  59.6091 300.5311 15.47082908324748
STARLINK-1333,45580,53.1602,0.0001402,15.30192359,474.27704100420124,476.198727321721,1 45580U 20025BB  26062.35783705  .00003472  00000+0  12931-3 0  9999,2 45580  53.1602 107.2206 0001402  96.8805 263.2355 15.30192359324533
STARLINK-1335,45581,53.1394,0.0001277,15.25983746,486.95623646138665,488.70980520470766,1 45581U 20025BC  26062.91670139  .01735730  00000+0  60969-1 0  9990,2 45581  53.1394 101.8192 0001277 108.7474  65.6111 15.25983746  5735
STARLINK-1337,45582,53.0529,0.0004479,15.57216258,392.6838732639035,398.75189246797436,1 45582U 20025BD  26062.84602949  .00123145  00000+0  16426-2 0  9997,2 45582  53.0529  90.1191 0004479  59.3285 300.8167 15.57216258324801
STARLINK-1347,45586,53.0459,0.000602,15.52780955,404.52517779932805,412.6964221504977,1 45586U 20025BH  26062.91670139  .00149104  00000+0  23302-2 0  9999,2 45586  53.0459  57.3355 0006020  33.3381 106.4799 15.52780955  5843
STARLINK-1364,45589,53.0516,0.0007167,15.48189845,417.14776681979856,426.8951139282299,1 45589U 20025BL  26062.36450560  .00088052  00000+0  16348-2 0  9991,2 45589  53.0516  93.5039 0007167  31.3382 328.8051 15.48189845324710
STARLINK-1365,45590,53.0529,0.0002985,15.44263688,431.5091525080452,435.57572513302057,1 45590U 20025BM  26062.39294881  .00038453  00000+0  82793-3 0  9996,2 45590  53.0529 123.5177 0002985   7.8127 352.2925 15.44263688324312
STARLINK-1443,45660,53.1349,0.000185,15.24872043,489.89886914406816,492.44051261969526,1 45660U 20035D   26062.91670139  .00055528  00000+0  22018-2 0  9992,2 45660  53.1349  91.5292 0001850  57.1781 130.6183 15.24872043  5822
STARLINK-1446,45663,53.0254,4.67e-05,15.42550255,438.2673464986892,438.9040283976956,1 45663U 20035G   26062.20328464  .00024101  00000+0  55424-3 0  9999,2 45663  53.0254  30.1801 0000467 234.2513 125.8448 15.42550255318676
STARLINK-1448,45665,53.0511,0.0007467,15.50876185,409.0947920370518,419.2384182409669,1 45665U 20035J   26062.59598211  .00116598  00000+0  19598-2 0  9995,2 45665  53.0511  82.0432 0007467  50.9875 309.1797 15.50876185317979
STARLINK-1451,45668,53.0525,0.0001424,15.09674498,536.2090943492731,538.1785805717818,1 45668U 20035M   26062.45849233  .00029462  00000+0  18194-2 0  9990,2 45668  53.0525  94.1870 0001424   2.4777 357.6221 15.09674498317806
STARLINK-1452,45669,53.033,0.0008302,15.43790322,429.27858007665964,440.5910044805587,1 45669U 20035N   26062.20913349  .00088222  00000+0  19041-2 0  9995,2 45669  53.0330  52.5795 0008302  28.6433 331.5027 15.43790322318366
STARLINK-1453,45670,53.0497,0.0008032,15.50807154,408.9124271366709,419.82390743740143,1 45670U 20035P   26062.26535356  .00114673  00000+0  19324-2 0  9995,2 45670  53.0497  44.2327 0008032  21.2194 338.9146 15.50807154318378
STARLINK-1454,45671,53.0518,0.0008696,15.49409996,412.540603032091,424.36122873539534,1 45671U 20035Q   26062.36857236  .00096980  00000+0  17217-2 0  9990,2 45671  53.0518  83.2025 0008696  34.3814 325.7755 15.49409996317932
STARLINK-1456,45673,53.0491,0.0001636,15.49598914,416.7866731919503,419.010336009057,1 45673U 20035S   26062.42781571  .00030715  00000+0  55245-3 0  9995,2 45673  53.0491  76.3665 0001636  93.6644 266.4550 15.49598914318050
